LEMUR-2-PETERG          
1 42841U 17042S   26068.48235713  .00023240  00000+0  81076-3 0  9993
2 42841  97.3980 253.6596 0003700 341.6938  18.4169 15.29611459473171
STARLINK-2497           
1 48455U 21040AD  26068.61196118  .00010340  00000+0  36088-3 0  9993
2 48455  53.1606 178.4891 0001813  58.8025 301.3153 15.30188220266660
